{
    "links": {
        "self": "http://www.neowsapp.com/rest/v1/neo/54053919?api_key=iIulBulltgU6a56xZRHN4H3l9WmuAYTsLGpBGhQ2"
    },
    "id": "54053919",
    "neo_reference_id": "54053919",
    "name": "(2020 RJ3)",
    "designation": "2020 RJ3",
    "nasa_jpl_url": "http://ssd.jpl.nasa.gov/sbdb.cgi?sstr=54053919",
    "absolute_magnitude_h": 23.467,
    "estimated_diameter": {
        "kilometers": {
            "estimated_diameter_min": 0.0538461897,
            "estimated_diameter_max": 0.1204037404
        },
        "meters": {
            "estimated_diameter_min": 53.8461896654,
            "estimated_diameter_max": 120.4037404213
        },
        "miles": {
            "estimated_diameter_min": 0.0334584607,
            "estimated_diameter_max": 0.0748153926
        },
        "feet": {
            "estimated_diameter_min": 176.660732902,
            "estimated_diameter_max": 395.0254077238
        }
    },
    "is_potentially_hazardous_asteroid": false,
    "close_approach_data": [
        {
            "close_approach_date": "2018-02-25",
            "close_approach_date_full": "2018-Feb-25 00:41",
            "epoch_date_close_approach": 1519519260000,
            "relative_velocity": {
                "kilometers_per_second": "23.07007796",
                "kilometers_per_hour": "83052.2806560263",
                "miles_per_hour": "51605.4573887403"
            },
            "miss_distance": {
                "astronomical": "0.2820307447",
                "lunar": "109.7099596883",
                "kilometers": "42191198.681633789",
                "miles": "26216395.1903687282"
            },
            "orbiting_body": "Earth"
        },
        {
            "close_approach_date": "2020-10-01",
            "close_approach_date_full": "2020-Oct-01 09:33",
            "epoch_date_close_approach": 1601544780000,
            "relative_velocity": {
                "kilometers_per_second": "15.4563876044",
                "kilometers_per_hour": "55642.9953757885",
                "miles_per_hour": "34574.3934322504"
            },
            "miss_distance": {
                "astronomical": "0.0390912307",
                "lunar": "15.2064887423",
                "kilometers": "5847964.848398609",
                "miles": "3633756.8572504442"
            },
            "orbiting_body": "Earth"
        },
        {
            "close_approach_date": "2123-02-04",
            "close_approach_date_full": "2123-Feb-04 08:59",
            "epoch_date_close_approach": 4831174740000,
            "relative_velocity": {
                "kilometers_per_second": "12.7967323174",
                "kilometers_per_hour": "46068.2363427206",
                "miles_per_hour": "28625.0105208422"
            },
            "miss_distance": {
                "astronomical": "0.1330712866",
                "lunar": "51.7647304874",
                "kilometers": "19907181.033519542",
                "miles": "12369748.7013599996"
            },
            "orbiting_body": "Earth"
        },
        {
            "close_approach_date": "2125-09-09",
            "close_approach_date_full": "2125-Sep-09 16:19",
            "epoch_date_close_approach": 4913108340000,
            "relative_velocity": {
                "kilometers_per_second": "26.8310408612",
                "kilometers_per_hour": "96591.747100284",
                "miles_per_hour": "60018.3553023959"
            },
            "miss_distance": {
                "astronomical": "0.3924134441",
                "lunar": "152.6488297549",
                "kilometers": "58704215.396724067",
                "miles": "36477107.9815514446"
            },
            "orbiting_body": "Earth"
        }
    ],
    "orbital_data": {
        "orbit_id": "12",
        "orbit_determination_date": "2020-10-27 07:14:31",
        "first_observation_date": "2020-09-11",
        "last_observation_date": "2020-09-29",
        "data_arc_in_days": 18,
        "observations_used": 82,
        "orbit_uncertainty": "8",
        "minimum_orbit_intersection": ".0389267",
        "jupiter_tisserand_invariant": "3.567",
        "epoch_osculation": "2459107.5",
        "eccentricity": ".607573920424069",
        "semi_major_axis": "2.004255938219029",
        "inclination": "10.03647874074211",
        "ascending_node_longitude": "356.3435832452169",
        "orbital_period": "1036.401887781288",
        "perihelion_distance": ".786522300302073",
        "perihelion_argument": "78.10318904154175",
        "aphelion_distance": "3.221989576135985",
        "perihelion_time": "2459168.064472215893",
        "mean_anomaly": "338.9625913897191",
        "mean_motion": ".3473556004135441",
        "equinox": "J2000",
        "orbit_class": {
            "orbit_class_type": "APO",
            "orbit_class_description": "Near-Earth asteroid orbits which cross the Earth’s orbit similar to that of 1862 Apollo",
            "orbit_class_range": "a (semi-major axis) > 1.0 AU; q (perihelion) < 1.017 AU"
        }
    },
    "is_sentry_object": false
}